{
  "type": "FeatureCollection",
  "features": [
    {
      "type": "Feature",
      "properties": {
        "norad_id": 60182,
        "name": "ALOS-4 (DAICHI-4)",
        "group": "resource",
        "lat": 25.45534015409667,
        "lon": 88.67968018617366,
        "alt_km": 629.777712670998,
        "timestamp": "2025-12-23T18:59:31.647982+00:00",
        "meta_object_name": "ALOS-4 (DAICHI-4)",
        "meta_object_id": "2024-123A",
        "meta_epoch": "2025-12-20T19:27:23.065632",
        "meta_mean_motion": 14.79476706,
        "meta_eccentricity": 0.00013885,
        "meta_inclination": 97.9224,
        "meta_ra_of_asc_node": 89.5428,
        "meta_arg_of_pericenter": 101.3368,
        "meta_mean_anomaly": 258.8,
        "meta_ephemeris_type": 0,
        "meta_classification_type": "U",
        "meta_norad_cat_id": 60182,
        "meta_element_set_no": 999,
        "meta_rev_at_epoch": 7950,
        "meta_bstar": 0.00018386978,
        "meta_mean_motion_dot": 1.322e-05,
        "meta_mean_motion_ddot": 0,
        "tle_line1": "1 60182U 24123A   25354.81068363  .00001322  00000+0  18387-3 0  9990",
        "tle_line2": "2 60182  97.9224  89.5428 0001388 101.3368 258.8000 14.79476706 79505"
      },
      "geometry": {
        "type": "Point",
        "coordinates": [
          88.67968018617366,
          25.45534015409667
        ]
      }
    },
    {
      "type": "Feature",
      "properties": {
        "norad_id": 60452,
        "name": "LEGION 3",
        "group": "resource",
        "lat": 12.967725049709822,
        "lon": 57.55896957593716,
        "alt_km": 517.7157640113192,
        "timestamp": "2025-12-23T18:59:31.647991+00:00",
        "meta_object_name": "LEGION 3",
        "meta_object_id": "2024-146A",
        "meta_epoch": "2025-12-23T04:02:50.500320",
        "meta_mean_motion": 15.15861266,
        "meta_eccentricity": 0.00157121,
        "meta_inclination": 45.0007,
        "meta_ra_of_asc_node": 254.2217,
        "meta_arg_of_pericenter": 254.3695,
        "meta_mean_anomaly": 105.545,
        "meta_ephemeris_type": 0,
        "meta_classification_type": "U",
        "meta_norad_cat_id": 60452,
        "meta_element_set_no": 999,
        "meta_rev_at_epoch": 7531,
        "meta_bstar": 0.00025762834,
        "meta_mean_motion_dot": 4.763e-05,
        "meta_mean_motion_ddot": 0,
        "tle_line1": "1 60452U 24146A   25357.16864005  .00004763  00000+0  25763-3 0  9991",
        "tle_line2": "2 60452  45.0007 254.2217 0015712 254.3695 105.5450 15.15861266 75315"
      },
      "geometry": {
        "type": "Point",
        "coordinates": [
          57.55896957593716,
          12.967725049709822
        ]
      }
    },
    {
      "type": "Feature",
      "properties": {
        "norad_id": 60453,
        "name": "LEGION 4",
        "group": "resource",
        "lat": 13.382015699766148,
        "lon": 148.91077402310415,
        "alt_km": 521.1735313073086,
        "timestamp": "2025-12-23T18:59:31.648000+00:00",
        "meta_object_name": "LEGION 4",
        "meta_object_id": "2024-146B",
        "meta_epoch": "2025-12-23T04:03:08.690112",
        "meta_mean_motion": 15.15928413,
        "meta_eccentricity": 0.00083719,
        "meta_inclination": 45.0392,
        "meta_ra_of_asc_node": 346.0014,
        "meta_arg_of_pericenter": 8.5092,
        "meta_mean_anomaly": 351.5928,
        "meta_ephemeris_type": 0,
        "meta_classification_type": "U",
        "meta_norad_cat_id": 60453,
        "meta_element_set_no": 999,
        "meta_rev_at_epoch": 7416,
        "meta_bstar": 0.00032560716,
        "meta_mean_motion_dot": 6.092e-05,
        "meta_mean_motion_ddot": 0,
        "tle_line1": "1 60453U 24146B   25357.16885058  .00006092  00000+0  32561-3 0  9994",
        "tle_line2": "2 60453  45.0392 346.0014 0008371   8.5092 351.5928 15.15928413 74164"
      },
      "geometry": {
        "type": "Point",
        "coordinates": [
          148.91077402310415,
          13.382015699766148
        ]
      }
    },
    {
      "type": "Feature",
      "properties": {
        "norad_id": 60989,
        "name": "SENTINEL-2C",
        "group": "resource",
        "lat": 16.928000789963075,
        "lon": 67.4842566341937,
        "alt_km": 789.2528342143996,
        "timestamp": "2025-12-23T18:59:31.648009+00:00",
        "meta_object_name": "SENTINEL-2C",
        "meta_object_id": "2024-157A",
        "meta_epoch": "2025-12-22T16:03:33.313248",
        "meta_mean_motion": 14.30821394,
        "meta_eccentricity": 0.00011973,
        "meta_inclination": 98.5671,
        "meta_ra_of_asc_node": 69.0082,
        "meta_arg_of_pericenter": 95.1447,
        "meta_mean_anomaly": 264.9872,
        "meta_ephemeris_type": 0,
        "meta_classification_type": "U",
        "meta_norad_cat_id": 60989,
        "meta_element_set_no": 999,
        "meta_rev_at_epoch": 6774,
        "meta_bstar": 7.0243627e-05,
        "meta_mean_motion_dot": 1.41e-06,
        "meta_mean_motion_ddot": 0,
        "tle_line1": "1 60989U 24157A   25356.66913557  .00000141  00000+0  70244-4 0  9990",
        "tle_line2": "2 60989  98.5671  69.0082 0001197  95.1447 264.9872 14.30821394 67740"
      },
      "geometry": {
        "type": "Point",
        "coordinates": [
          67.4842566341937,
          16.928000789963075
        ]
      }
    },
    {
      "type": "Feature",
      "properties": {
        "norad_id": 61735,
        "name": "IONOSFERA-M 1",
        "group": "resource",
        "lat": -37.810363230901274,
        "lon": -125.5897308134722,
        "alt_km": 822.3088093260931,
        "timestamp": "2025-12-23T18:59:31.648019+00:00",
        "meta_object_name": "IONOSFERA-M 1",
        "meta_object_id": "2024-199A",
        "meta_epoch": "2025-12-23T07:21:24.740640",
        "meta_mean_motion": 14.2271628,
        "meta_eccentricity": 4.407e-05,
        "meta_inclination": 98.7404,
        "meta_ra_of_asc_node": 227.0733,
        "meta_arg_of_pericenter": 6.9709,
        "meta_mean_anomaly": 353.1475,
        "meta_ephemeris_type": 0,
        "meta_classification_type": "U",
        "meta_norad_cat_id": 61735,
        "meta_element_set_no": 999,
        "meta_rev_at_epoch": 10269,
        "meta_bstar": 4.8243359e-05,
        "meta_mean_motion_dot": 6.4e-07,
        "meta_mean_motion_ddot": 0,
        "tle_line1": "1 61735U 24199A   25357.30653635  .00000064  00000+0  48243-4 0  9994",
        "tle_line2": "2 61735  98.7404 227.0733 0000440   6.9709 353.1475 14.22716280102698"
      },
      "geometry": {
        "type": "Point",
        "coordinates": [
          -125.5897308134722,
          -37.810363230901274
        ]
      }
    },
    {
      "type": "Feature",
      "properties": {
        "norad_id": 61736,
        "name": "IONOSFERA-M 2",
        "group": "resource",
        "lat": 34.90607130461815,
        "lon": 53.62809232708597,
        "alt_km": 812.94011556843,
        "timestamp": "2025-12-23T18:59:31.648028+00:00",
        "meta_object_name": "IONOSFERA-M 2",
        "meta_object_id": "2024-199B",
        "meta_epoch": "2025-12-23T06:30:00.582048",
        "meta_mean_motion": 14.22718444,
        "meta_eccentricity": 0.0001842,
        "meta_inclination": 98.7395,
        "meta_ra_of_asc_node": 226.9502,
        "meta_arg_of_pericenter": 97.0087,
        "meta_mean_anomaly": 263.13,
        "meta_ephemeris_type": 0,
        "meta_classification_type": "U",
        "meta_norad_cat_id": 61736,
        "meta_element_set_no": 999,
        "meta_rev_at_epoch": 10581,
        "meta_bstar": 4.4147184e-05,
        "meta_mean_motion_dot": 5.5e-07,
        "meta_mean_motion_ddot": 0,
        "tle_line1": "1 61736U 24199B   25357.27084007  .00000055  00000+0  44147-4 0  9991",
        "tle_line2": "2 61736  98.7395 226.9502 0001842  97.0087 263.1300 14.22718444105815"
      },
      "geometry": {
        "type": "Point",
        "coordinates": [
          53.62809232708597,
          34.90607130461815
        ]
      }
    },
    {
      "type": "Feature",
      "properties": {
        "norad_id": 63772,
        "name": "BIOMASS",
        "group": "resource",
        "lat": -42.67966691024675,
        "lon": -169.84297681818515,
        "alt_km": 675.9902370980772,
        "timestamp": "2025-12-23T18:59:31.648037+00:00",
        "meta_object_name": "BIOMASS",
        "meta_object_id": "2025-090A",
        "meta_epoch": "2025-12-23T01:11:18.929760",
        "meta_mean_motion": 14.67539192,
        "meta_eccentricity": 0.00011003,
        "meta_inclination": 98.0698,
        "meta_ra_of_asc_node": 181.9089,
        "meta_arg_of_pericenter": 82.234,
        "meta_mean_anomaly": 277.899,
        "meta_ephemeris_type": 0,
        "meta_classification_type": "U",
        "meta_norad_cat_id": 63772,
        "meta_element_set_no": 999,
        "meta_rev_at_epoch": 3485,
        "meta_bstar": 0.0002248983,
        "meta_mean_motion_dot": 1.228e-05,
        "meta_mean_motion_ddot": 0,
        "tle_line1": "1 63772U 25090A   25357.04952465  .00001228  00000+0  22490-3 0  9990",
        "tle_line2": "2 63772  98.0698 181.9089 0001100  82.2340 277.8990 14.67539192 34853"
      },
      "geometry": {
        "type": "Point",
        "coordinates": [
          -169.84297681818515,
          -42.67966691024675
        ]
      }
    }
  ]
}